{
  "type": "FeatureCollection",
  "features": [
    {
      "type": "Feature",
      "properties": {
        "norad_id": 36657,
        "name": "FENGYUN 1C DEB",
        "group": "fengyun-1c-debris",
        "lat": -0.823118681061198,
        "lon": -50.41152034421818,
        "alt_km": 681.5973553331924,
        "timestamp": "2025-12-05T19:30:25.854035+00:00",
        "meta_object_name": "FENGYUN 1C DEB",
        "meta_object_id": "1999-025DYB",
        "meta_epoch": "2025-12-02T08:45:37.134432",
        "meta_mean_motion": 14.65384436,
        "meta_eccentricity": 0.01060994,
        "meta_inclination": 99.4117,
        "meta_ra_of_asc_node": 125.7813,
        "meta_arg_of_pericenter": 98.4012,
        "meta_mean_anomaly": 262.9231,
        "meta_ephemeris_type": 0,
        "meta_classification_type": "U",
        "meta_norad_cat_id": 36657,
        "meta_element_set_no": 999,
        "meta_rev_at_epoch": 66104,
        "meta_bstar": 0.00095765855,
        "meta_mean_motion_dot": 5.561e-05,
        "meta_mean_motion_ddot": 0,
        "tle_line1": "1 36657U 99025DYB 25336.36501313  .00005561  00000+0  95766-3 0  9995",
        "tle_line2": "2 36657  99.4117 125.7813 0106099  98.4012 262.9231 14.65384436661042"
      },
      "geometry": {
        "type": "Point",
        "coordinates": [
          -50.41152034421818,
          -0.823118681061198
        ]
      }
    },
    {
      "type": "Feature",
      "properties": {
        "norad_id": 36659,
        "name": "FENGYUN 1C DEB",
        "group": "fengyun-1c-debris",
        "lat": -43.67430349919354,
        "lon": -7.5265920560280595,
        "alt_km": 1017.1643714221964,
        "timestamp": "2025-12-05T19:30:25.854045+00:00",
        "meta_object_name": "FENGYUN 1C DEB",
        "meta_object_id": "1999-025DYD",
        "meta_epoch": "2025-12-03T17:31:46.824384",
        "meta_mean_motion": 13.87351182,
        "meta_eccentricity": 0.01360495,
        "meta_inclination": 99.8537,
        "meta_ra_of_asc_node": 340.7271,
        "meta_arg_of_pericenter": 98.4924,
        "meta_mean_anomaly": 263.1676,
        "meta_ephemeris_type": 0,
        "meta_classification_type": "U",
        "meta_norad_cat_id": 36659,
        "meta_element_set_no": 999,
        "meta_rev_at_epoch": 60300,
        "meta_bstar": 0.00086325838,
        "meta_mean_motion_dot": 1.046e-05,
        "meta_mean_motion_ddot": 0,
        "tle_line1": "1 36659U 99025DYD 25337.73040306  .00001046  00000+0  86326-3 0  9995",
        "tle_line2": "2 36659  99.8537 340.7271 0136049  98.4924 263.1676 13.87351182603004"
      },
      "geometry": {
        "type": "Point",
        "coordinates": [
          -7.5265920560280595,
          -43.67430349919354
        ]
      }
    },
    {
      "type": "Feature",
      "properties": {
        "norad_id": 36664,
        "name": "FENGYUN 1C DEB",
        "group": "fengyun-1c-debris",
        "lat": -24.298422826764284,
        "lon": -179.2902173007156,
        "alt_km": 824.6096719350735,
        "timestamp": "2025-12-05T19:30:25.854055+00:00",
        "meta_object_name": "FENGYUN 1C DEB",
        "meta_object_id": "1999-025DYJ",
        "meta_epoch": "2025-12-03T20:50:14.182080",
        "meta_mean_motion": 14.17950861,
        "meta_eccentricity": 0.0173433,
        "meta_inclination": 98.6052,
        "meta_ra_of_asc_node": 2.7444,
        "meta_arg_of_pericenter": 125.1301,
        "meta_mean_anomaly": 236.6268,
        "meta_ephemeris_type": 0,
        "meta_classification_type": "U",
        "meta_norad_cat_id": 36664,
        "meta_element_set_no": 999,
        "meta_rev_at_epoch": 63625,
        "meta_bstar": 0.00015526,
        "meta_mean_motion_dot": 3.27e-06,
        "meta_mean_motion_ddot": 0,
        "tle_line1": "1 36664U 99025DYJ 25337.86821970  .00000327  00000+0  15526-3 0  9994",
        "tle_line2": "2 36664  98.6052   2.7444 0173433 125.1301 236.6268 14.17950861636259"
      },
      "geometry": {
        "type": "Point",
        "coordinates": [
          -179.2902173007156,
          -24.298422826764284
        ]
      }
    },
    {
      "type": "Feature",
      "properties": {
        "norad_id": 36668,
        "name": "FENGYUN 1C DEB",
        "group": "fengyun-1c-debris",
        "lat": -72.10173665042596,
        "lon": 142.44973942071763,
        "alt_km": 811.8382175356401,
        "timestamp": "2025-12-05T19:30:25.854065+00:00",
        "meta_object_name": "FENGYUN 1C DEB",
        "meta_object_id": "1999-025DYN",
        "meta_epoch": "2025-12-02T19:02:55.094208",
        "meta_mean_motion": 14.15355053,
        "meta_eccentricity": 0.00511066,
        "meta_inclination": 98.6098,
        "meta_ra_of_asc_node": 347.5122,
        "meta_arg_of_pericenter": 254.5059,
        "meta_mean_anomaly": 105.0468,
        "meta_ephemeris_type": 0,
        "meta_classification_type": "U",
        "meta_norad_cat_id": 36668,
        "meta_element_set_no": 999,
        "meta_rev_at_epoch": 57277,
        "meta_bstar": 0.00077081023,
        "meta_mean_motion_dot": 1.478e-05,
        "meta_mean_motion_ddot": 0,
        "tle_line1": "1 36668U 99025DYN 25336.79369322  .00001478  00000+0  77081-3 0  9999",
        "tle_line2": "2 36668  98.6098 347.5122 0051106 254.5059 105.0468 14.15355053572772"
      },
      "geometry": {
        "type": "Point",
        "coordinates": [
          142.44973942071763,
          -72.10173665042596
        ]
      }
    },
    {
      "type": "Feature",
      "properties": {
        "norad_id": 36678,
        "name": "FENGYUN 1C DEB",
        "group": "fengyun-1c-debris",
        "lat": 45.19355717291326,
        "lon": 150.8577224138853,
        "alt_km": 815.4587023153772,
        "timestamp": "2025-12-05T19:30:25.854075+00:00",
        "meta_object_name": "FENGYUN 1C DEB",
        "meta_object_id": "1999-025DYY",
        "meta_epoch": "2025-11-26T04:26:16.761408",
        "meta_mean_motion": 14.37944691,
        "meta_eccentricity": 0.01523469,
        "meta_inclination": 98.2901,
        "meta_ra_of_asc_node": 313.1233,
        "meta_arg_of_pericenter": 42.409,
        "meta_mean_anomaly": 318.8754,
        "meta_ephemeris_type": 0,
        "meta_classification_type": "U",
        "meta_norad_cat_id": 36678,
        "meta_element_set_no": 999,
        "meta_rev_at_epoch": 64751,
        "meta_bstar": 0.00045851479,
        "meta_mean_motion_dot": 1.539e-05,
        "meta_mean_motion_ddot": 0,
        "tle_line1": "1 36678U 99025DYY 25330.18491622  .00001539  00000+0  45851-3 0  9994",
        "tle_line2": "2 36678  98.2901 313.1233 0152346  42.4090 318.8754 14.37944691647514"
      },
      "geometry": {
        "type": "Point",
        "coordinates": [
          150.8577224138853,
          45.19355717291326
        ]
      }
    },
    {
      "type": "Feature",
      "properties": {
        "norad_id": 36679,
        "name": "FENGYUN 1C DEB",
        "group": "fengyun-1c-debris",
        "lat": 54.85741289936283,
        "lon": -36.64088420810478,
        "alt_km": 837.9896433864806,
        "timestamp": "2025-12-05T19:30:25.854085+00:00",
        "meta_object_name": "FENGYUN 1C DEB",
        "meta_object_id": "1999-025DYZ",
        "meta_epoch": "2025-12-02T05:45:43.795008",
        "meta_mean_motion": 14.04609463,
        "meta_eccentricity": 0.0085974,
        "meta_inclination": 98.8351,
        "meta_ra_of_asc_node": 332.6471,
        "meta_arg_of_pericenter": 122.6149,
        "meta_mean_anomaly": 238.3353,
        "meta_ephemeris_type": 0,
        "meta_classification_type": "U",
        "meta_norad_cat_id": 36679,
        "meta_element_set_no": 999,
        "meta_rev_at_epoch": 24401,
        "meta_bstar": 0.00048108,
        "meta_mean_motion_dot": 7.53e-06,
        "meta_mean_motion_ddot": 0,
        "tle_line1": "1 36679U 99025DYZ 25336.24009022  .00000753  00000+0  48108-3 0  9992",
        "tle_line2": "2 36679  98.8351 332.6471 0085974 122.6149 238.3353 14.04609463244016"
      },
      "geometry": {
        "type": "Point",
        "coordinates": [
          -36.64088420810478,
          54.85741289936283
        ]
      }
    },
    {
      "type": "Feature",
      "properties": {
        "norad_id": 36680,
        "name": "FENGYUN 1C DEB",
        "group": "fengyun-1c-debris",
        "lat": 36.699110453181916,
        "lon": -34.25536127749675,
        "alt_km": 908.8745266302731,
        "timestamp": "2025-12-05T19:30:25.854095+00:00",
        "meta_object_name": "FENGYUN 1C DEB",
        "meta_object_id": "1999-025DZA",
        "meta_epoch": "2025-12-01T11:07:14.342016",
        "meta_mean_motion": 14.1858241,
        "meta_eccentricity": 0.01886112,
        "meta_inclination": 98.5478,
        "meta_ra_of_asc_node": 327.9868,
        "meta_arg_of_pericenter": 282.1822,
        "meta_mean_anomaly": 233.6728,
        "meta_ephemeris_type": 0,
        "meta_classification_type": "U",
        "meta_norad_cat_id": 36680,
        "meta_element_set_no": 999,
        "meta_rev_at_epoch": 64137,
        "meta_bstar": 0.00071360344,
        "meta_mean_motion_dot": 1.717e-05,
        "meta_mean_motion_ddot": 0,
        "tle_line1": "1 36680U 99025DZA 25335.46336044  .00001717  00000+0  71360-3 0  9991",
        "tle_line2": "2 36680  98.5478 327.9868 0188611 282.1822 233.6728 14.18582410641375"
      },
      "geometry": {
        "type": "Point",
        "coordinates": [
          -34.25536127749675,
          36.699110453181916
        ]
      }
    }
  ]
}